BEIDOU-3 G1             
1 43683U 18085A   26091.86294493 -.00000284  00000+0  00000+0 0  9992
2 43683   2.8820  99.4564 0002058  12.9832 168.3736  1.00268589 27296
BEIDOU-3 M17            
1 43706U 18093A   26093.17930544  .00000013  00000+0  00000+0 0  9996
2 43706  54.1686 184.8411 0008074 293.4644  95.1929  1.86228537 50147
BEIDOU-3 M18            
1 43707U 18093B   26091.38824043 -.00000003  00000+0  00000+0 0  9994
2 43707  54.1693 184.8940 0006484 331.1835  28.8049  1.86226571 50106
BEIDOU-3 IGSO-1         
1 44204U 19023A   26090.65189120 -.00000226  00000+0  00000+0 0  9997
2 44204  58.5926  38.4466 0025189 236.5952 266.8923  1.00262964  6438
BEIDOU-2 G8             
1 44231U 19027A   26095.27446334 -.00000245  00000+0  00000+0 0  9998
2 44231   1.4739  74.3171 0011531 276.6656  85.8988  1.00275522 25357
BEIDOU-3 IGSO-2         
1 44337U 19035A   26086.82285878 -.00000161  00000+0  00000+0 0  9996
2 44337  55.2326 159.5780 0039045 213.6954 226.2541  1.00291912 24858
BEIDOU-3 M24            
1 44542U 19061A   26094.67962578  .00000015  00000+0  00000+0 0  9991
2 44542  54.3962 185.2068 0008113  12.5163 347.5468  1.86229007 44427
BEIDOU-3 M23            
1 44543U 19061B   26092.15889837  .00000005  00000+0  00000+0 0  9998
2 44543  54.3946 185.2604 0004867 359.4431  22.6796  1.86227494 44387
BEIDOU-3 IGSO-3         
1 44709U 19073A   26094.91715300 -.00000178  00000+0  00000+0 0  9996
2 44709  54.9277 281.6865 0041418 188.5176 171.3520  1.00259378 23728
BEIDOU-3 M22            
1 44793U 19078A   26094.51853862 -.00000061  00000+0  00000+0 0  9997
2 44793  54.0029 302.4189 0007558  42.6264 317.4505  1.86227241 43279
BEIDOU-3 M21            
1 44794U 19078B   26093.58474245 -.00000063  00000+0  00000+0 0  9990
2 44794  53.9768 302.4147 0005354  38.8071 321.2518  1.86227660 43268
BEIDOU-3 M19            
1 44864U 19090A   26095.17349922 -.00000038  00000+0  00000+0 0  9994
2 44864  56.4976  65.2019 0020306 293.9017 248.0667  1.86231756 42873
BEIDOU-3 M20            
1 44865U 19090B   26092.34794457 -.00000042  00000+0  00000+0 0  9993
2 44865  56.4965  65.3296 0017833 305.7575 231.4249  1.86231443 42800
BEIDOU-3 G2             
1 45344U 20017A   26095.12316836 -.00000138  00000+0  00000+0 0  9993
2 45344   2.7181  46.1506 0002845 336.9903 294.6728  1.00272116 22524
BEIDOU-3 G3             
1 45807U 20040A   26095.26770332 -.00000351  00000+0  00000+0 0  9990
2 45807   2.2687  67.2270 0004580 328.5008   4.7695  1.00269679 21338
BEIDOU-3 G4             
1 56564U 23066A   26095.27359667 -.00000280  00000+0  00000+0 0  9999
2 56564   0.5929 315.9264 0002945 158.0215 318.1835  1.00270792 10665
BEIDOU-3 M28            
1 58654U 23207A   26095.27291065 -.00000040  00000+0  00000+0 0  9999
2 58654  55.6905  64.7613 0004914 314.2404  45.6924  1.86229840 15481
